ONEWEB-0066             
1 45424U 20020A   24057.44033427  .00000216  00000+0  57505-3 0  9991
2 45424  87.9019 188.4045 0001691  89.4779 270.6542 13.11416986192352
ONEWEB-0067             
1 45425U 20020B   24057.38756234 -.00000434  00000+0 -12609-2 0  9992
2 45425  87.9017 188.3796 0001901 104.6070 255.5269 13.11415313192408
ONEWEB-0080             
1 45426U 20020C   24057.41274357  .00000198  00000+0  52318-3 0  9995
2 45426  87.9021 188.4128 0001485  88.6429 271.4869 13.11418935192372
ONEWEB-0090             
1 45427U 20020D   24057.43059262  .00000578  00000+0  15963-2 0  9990
2 45427  87.9021 188.3877 0001623 100.7388 259.3923 13.11419461192345
ONEWEB-0061             
1 45428U 20020E   24057.38676559 -.00000463  00000+0 -13413-2 0  9992
2 45428  87.9020 188.3998 0001640 102.1829 257.9483 13.11418111192294
ONEWEB-0081             
1 45429U 20020F   24057.44359324  .00000106  00000+0  26297-3 0  9995
2 45429  87.9019 188.4053 0001801  98.8478 261.2854 13.11416072192414
ONEWEB-0069             
1 45430U 20020G   24057.43384577  .00000520  00000+0  14324-2 0  9991
2 45430  87.9020 188.3954 0001555 102.7949 257.3353 13.11417460192345
ONEWEB-0031             
1 45431U 20020H   24057.40461579 -.00000049  00000+0 -17477-3 0  9998
2 45431  87.9029 188.4027 0001574 114.5106 245.6187 13.11420850192324
